ONEWEB-0709             
1 55172U 23004AJ  25064.66588161  .00000472  00000+0  12954-2 0  9992
2 55172  87.8837 114.5015 0002193  72.8884 287.2484 13.11416217104469
ONEWEB-0710             
1 55173U 23004AK  25064.52574870  .00000022  00000+0  24136-4 0  9998
2 55173  87.9015  99.2516 0001802  96.5931 263.5406 13.17647565105860
ONEWEB-0711             
1 55174U 23004AL  25064.63703396 -.00000490  00000+0 -14182-2 0  9997
2 55174  87.8838 114.4751 0001213 116.6512 243.4740 13.11418404104420
ONEWEB-0713             
1 55175U 23004AM  25064.65570713  .00000483  00000+0  13278-2 0  9990
2 55175  87.8837 114.4794 0001640 104.3042 255.8268 13.11418123104412
ONEWEB-0715             
1 55176U 23004AN  25064.65061953  .00000354  00000+0  96372-3 0  9996
2 55176  87.8837 114.4804 0001755  86.1336 273.9993 13.11419527104454
ONEWEB-0716             
1 55177U 23004AP  25064.59493504 -.00000003  00000+0 -40743-4 0  9996
2 55177  87.9018  99.2351 0002153  98.9813 261.1563 13.17647745105878
ONEWEB-0717             
1 55178U 23004AQ  25064.65398917 -.00000020  00000+0 -84941-4 0  9993
2 55178  87.9015  99.1835 0001168  97.2586 262.8678 13.17648585105931
ONEWEB-0719             
1 55179U 23004AR  25064.58818045  .00000028  00000+0  38002-4 0  9998
2 55179  87.9014  99.1813 0002045 101.6239 258.5122 13.17647187105873
ONEWEB-0530             
1 55796U 23029A   25064.91349657  .00000017  00000+0  10066-4 0  9993
2 55796  87.9325   7.6655 0001341  91.8666 268.2620 13.20771611 99331
ONEWEB-0534             
1 55797U 23029B   25064.90087045  .00000056  00000+0  10645-3 0  9998
2 55797  87.9324   7.6754 0001939  82.6979 277.4374 13.20773165 99333
ONEWEB-0556             
1 55798U 23029C   25064.90718104  .00000012  00000+0 -25199-5 0  9991
2 55798  87.9325   7.6667 0001927 105.3821 254.7525 13.20770900 99334
ONEWEB-0562             
1 55799U 23029D   25064.89455614  .00000008  00000+0 -11452-4 0  9995
2 55799  87.9325   7.6616 0001372 111.6697 248.4582 13.20771270 99338
ONEWEB-0563             
1 55800U 23029E   25064.88824575  .00000027  00000+0  35561-4 0  9990
2 55800  87.9326   7.6774 0002190  84.1147 276.0236 13.20771338 99327
ONEWEB-0564             
1 55801U 23029F   25064.88193102  .00000056  00000+0  10484-3 0  9994
2 55801  87.9326   7.6666 0001559  89.0605 271.0707 13.20771098 99331
ONEWEB-0638             
1 55802U 23029G   25064.88811720  .00000024  00000+0  30873-4 0  9998
2 55802  87.9060  22.8738 0001932  98.7624 261.3724 13.14502594 97873
ONEWEB-0639             
1 55803U 23029H   25064.86322814  .00000144  00000+0  32662-3 0  9998
2 55803  87.9194  38.0623 0003094  81.3382 278.8101 13.19725049 97132
ONEWEB-0640             
1 55804U 23029J   25064.89761264 -.00000128  00000+0 -38008-3 0  9992
2 55804  87.9057  22.8622 0002382  98.5175 261.6224 13.14500151 97899
ONEWEB-0641             
1 55805U 23029K   25064.85848702  .00000012  00000+0 -28921-5 0  9998
2 55805  87.9191  38.0381 0002153  81.4385 278.6992 13.19724006 97140
ONEWEB-0642             
1 55806U 23029L   25064.92956635  .00000102  00000+0  22205-3 0  9998
2 55806  87.9198  38.0570 0002824  74.4923 285.6521 13.19724663 97148
ONEWEB-0643             
1 55807U 23029M   25064.86750508  .00000278  00000+0  71524-3 0  9995
2 55807  87.9055  22.8490 0002522  65.2212 294.9180 13.14502970 97860
ONEWEB-0644             
1 55808U 23029N   25064.92482396  .00000078  00000+0  16239-3 0  9990
2 55808  87.9199  38.0592 0002427  76.3555 283.7848 13.19723666 97149
ONEWEB-0645             
1 55809U 23029P   25064.92085902  .00000042  00000+0  72280-4 0  9993
2 55809  87.9197  38.0577 0002174  88.0695 272.0687 13.19727444 97145
ONEWEB-0646             
1 55810U 23029Q   25064.87505265  .00000062  00000+0  12185-3 0  9997
2 55810  87.9192  38.0620 0002130  78.0812 282.0559 13.19722381 97125
ONEWEB-0648             
1 55811U 23029R   25064.91189713 -.00000179  00000+0 -51709-3 0  9995
2 55811  87.9059  22.8142 0002878  82.3406 277.8050 13.14501226 97872
ONEWEB-0649             
1 55812U 23029S   25064.91376755  .00000026  00000+0  33816-4 0  9999
2 55812  87.9193  38.0454 0002443  83.5313 276.6098 13.19724719 97165
ONEWEB-0650             
1 55813U 23029T   25064.90903085  .00000032  00000+0  47653-4 0  9992
2 55813  87.9195  38.0536 0002121  80.9598 279.1775 13.19724968 97131
ONEWEB-0652             
1 55814U 23029U   25064.89286401 -.00000032  00000+0 -12186-3 0  9991
2 55814  87.9059  22.8289 0001712  82.0117 278.1207 13.14503286 97842
ONEWEB-0653             
1 55815U 23029V   25064.87700403  .00000215  00000+0  54556-3 0  9991
2 55815  87.9062  22.8185 0001815  88.1873 271.9465 13.14500864 97871
ONEWEB-0654             
1 55816U 23029W   25064.87224556  .00000275  00000+0  70798-3 0  9994
2 55816  87.9057  22.8226 0001486  89.7200 270.4100 13.14501182 97893
ONEWEB-0656             
1 55817U 23029X   25064.87561757  .00000044  00000+0  76036-4 0  9998
2 55817  87.9325   7.6090 0001240  77.0546 283.0726 13.20771582 99338
ONEWEB-0657             
1 55818U 23029Y   25064.90429007 -.00000017  00000+0 -75116-4 0  9994
2 55818  87.9195  38.0595 0001471  59.7506 300.3772 13.19723868 97144
ONEWEB-0658             
1 55819U 23029Z   25064.89955433 -.00000023  00000+0 -90876-4 0  9997
2 55819  87.9194  37.9944 0002397  77.2138 282.9262 13.19724034 97150
ONEWEB-0660             
1 55820U 23029AA  25064.92617783  .00000078  00000+0  17519-3 0  9996
2 55820  87.9055  22.7842 0002248  87.2948 272.8439 13.14503808 97885
ONEWEB-0661             
1 55821U 23029AB  25064.88493589  .00000113  00000+0  27036-3 0  9993
2 55821  87.9059  22.8617 0002151  89.8029 270.3347 13.14504919 97865
ONEWEB-0662             
1 55822U 23029AC  25064.91982110 -.00000005  00000+0 -48057-4 0  9990
2 55822  87.9055  22.8620 0002273  86.0825 274.0564 13.14504967 97915
ONEWEB-0663             
1 55823U 23029AD  25064.86155232  .00000112  00000+0  24374-3 0  9994
2 55823  87.9326   7.6689 0002313  84.2755 275.8642 13.20825526 99327
ONEWEB-0664             
1 55824U 23029AE  25064.86299026  .00000100  00000+0  21329-3 0  9999
2 55824  87.9327   7.6872 0001814  95.4319 264.7021 13.20770725 99326
ONEWEB-0665             
1 55825U 23029AF  25064.88177542  .00000127  00000+0  30940-3 0  9998
2 55825  87.9060  22.8369 0002172  83.1831 276.9546 13.14502295 97886
ONEWEB-0666             
1 55826U 23029AG  25064.85667343 -.00000335  00000+0 -85507-3 0  9991
2 55826  87.9327   7.6776 0001469  77.4063 282.7234 13.20772981 99336
ONEWEB-0667             
1 55827U 23029AH  25064.85036076  .00000072  00000+0  14538-3 0  9997
2 55827  87.9326   7.6115 0002020  85.6632 274.4732 13.20770241 99327
ONEWEB-0669             
1 55828U 23029AJ  25064.84563028  .00000075  00000+0  15162-3 0  9996
2 55828  87.9325   7.6485 0001238  95.9100 264.2175 13.20771179 99320
ONEWEB-0670             
1 55829U 23029AK  25064.85956523  .00000240  00000+0  61396-3 0  9998
2 55829  87.9060  22.8559 0002102  94.3616 265.7754 13.14501297 97900
ONEWEB-0671             
1 55830U 23029AL  25064.89481422  .00000020  00000+0  17487-4 0  9994
2 55830  87.9192  38.0559 0002105  91.6236 268.5138 13.19724275 97138
ONEWEB-0672             
1 55831U 23029AM  25064.84088975  .00000040  00000+0  65663-4 0  9997
2 55831  87.9326   7.6345 0001569  74.0311 286.0995 13.20770472 99326
ONEWEB-0673             
1 55832U 23029AN  25064.87112467  .00000062  00000+0  12198-3 0  9993
2 55832  87.9192  38.0251 0002150  79.9779 280.1596 13.19724288 97132
ONEWEB-0674             
1 55833U 23029AP  25064.90397174 -.00000192  00000+0 -55226-3 0  9993
2 55833  87.9055  22.8391 0002072  97.1942 262.9423 13.14501552 97896
ONEWEB-0675             
1 55834U 23029AQ  25064.88691535  .00000045  00000+0  81250-4 0  9991
2 55834  87.9195  38.0658 0001872  74.0252 286.1086 13.19724085 97157
ONEWEB-0720             
1 55835U 23029AR  25064.87902556  .00000096  00000+0  20798-3 0  9994
2 55835  87.9196  38.0650 0002375  83.9131 276.2273 13.19725186 97077
ONEWEB-0537             
1 56046U 23043A   25064.74933734 -.00000034  00000+0 -12351-3 0  9993
2 56046  87.9104 322.1291 0001582  71.6111 288.5192 13.16595205 97328
ONEWEB-0538             
1 56047U 23043B   25064.74300659 -.00000044  00000+0 -14796-3 0  9994
2 56047  87.9105 322.1522 0001878  70.1427 289.9907 13.16594633 97333
ONEWEB-0546             
1 56048U 23043C   25064.73033507  .00000006  00000+0 -19087-4 0  9995
2 56048  87.9107 322.1229 0001063  61.9843 298.1395 13.16595548 97324
ONEWEB-0547             
1 56049U 23043D   25064.76438590  .00000054  00000+0  98288-4 0  9992
2 56049  87.9346 337.3607 0001935  72.3775 287.7570 13.21824653 96344
ONEWEB-0548             
1 56050U 23043E   25064.75566641  .00000020  00000+0  17648-4 0  9996
2 56050  87.9105 322.1590 0001756  96.7129 263.4202 13.16595501 97329
ONEWEB-0549             
1 56051U 23043F   25064.75571444  .00000040  00000+0  66338-4 0  9996
2 56051  87.9348 337.3638 0002144  72.2283 287.9085 13.21825072 96348
ONEWEB-0550             
1 56052U 23043G   25064.81879336  .00000020  00000+0  16773-4 0  9991
2 56052  87.9344 337.3497 0001833  83.9431 276.1912 13.21824659 96356
ONEWEB-0551             
1 56053U 23043H   25064.87027637  .00000138  00000+0  33378-3 0  9996
2 56053  87.9140 352.5177 0002076  76.5170 283.6192 13.15548902 94823
ONEWEB-0552             
1 56054U 23043J   25064.81248609  .00000014  00000+0  12281-5 0  9990
2 56054  87.9344 337.3601 0002081  82.3155 277.8215 13.21825001 96353
ONEWEB-0553             
1 56055U 23043K   25064.73666621 -.00000014  00000+0 -70902-4 0  9995
2 56055  87.9105 322.1507 0001473  70.9995 289.1295 13.16596113 97331
ONEWEB-0554             
1 56056U 23043L   25064.72400764 -.00000022  00000+0 -91740-4 0  9991
2 56056  87.9110 322.1808 0001901  97.0329 263.1018 13.16595134 97314
